NORAD_CAT_ID,OBJECT_NAME,OBJECT_TYPE,EPOCH,MEAN_MOTION,ECCENTRICITY,INCLINATION,RA_OF_ASC_NODE,ARG_OF_PERICENTER,MEAN_ANOMALY,BSTAR,MEAN_MOTION_DOT,MEAN_MOTION_DDOT,TLE_LINE0,TLE_LINE1,TLE_LINE2,SEMIMAJOR_AXIS,PERIOD,APOGEE,PERIGEE,DECAYED
52274.0,STARLINK-3790,PAYLOAD,2022-07-31 22:00:00,15.08820355,0.0001824,53.2148,260.3285,51.2408,100.7294,0.00086353,0.00013474,0.0,0 STARLINK-3790,1 52274U 22041P   22212.91667824  .00013474  00000-0  86353-3 0  9998,2 52274  53.2148 260.3285 0001824  51.2408 100.7294 15.08820355  1300,6917.94,95.439,541.067,538.544,0.0
52274.0,STARLINK-3790,PAYLOAD,2022-08-01 06:00:00,15.08847813,0.0001874,53.215,258.8325,52.7593,110.7829,-0.0016635999999999,-0.00026673,0.0,0 STARLINK-3790,1 52274U 22041P   22213.25001157 -.00026673  00000-0 -16636-2 0  9990,2 52274  53.2150 258.8325 0001874  52.7593 110.7829 15.08847813 16855,6917.857,95.437,541.018,538.425,0.0
52274.0,STARLINK-3790,PAYLOAD,2022-08-01 14:00:01,15.08811203,0.0002000999999999,53.2146,257.3372,47.0223,128.1186,0.0027855,0.00044288,0.0,0 STARLINK-3790,1 52274U 22041P   22213.58334491  .00044288  00000-0  27855-2 0  9991,2 52274  53.2146 257.3372 0002001  47.0223 128.1186 15.08811203  1303,6917.968000000003,95.439,541.2180000000002,538.4490000000002,0.0
52274.0,STARLINK-3790,PAYLOAD,2022-08-01 22:00:00,15.088220499999998,0.0001813,53.2146,255.83900000000003,52.1165,134.6119,0.0013109,0.00020626,0.0,0 STARLINK-3790,1 52274U 22041P   22213.91667824  .00020626  00000-0  13109-2 0  9994,2 52274  53.2146 255.8390 0001813  52.1165 134.6119 15.08822050 16955,6917.935,95.439,541.054,538.5459999999998,0.0
52274.0,STARLINK-3790,PAYLOAD,2022-08-02 14:00:01,15.08818345,0.0001996,53.2152,252.8477,48.0031,161.9053,0.0023738,0.00037671,0.0,0 STARLINK-3790,1 52274U 22041P   22214.58334491  .00037671  00000-0  23738-2 0  9996,2 52274  53.2152 252.8477 0001996  48.0031 161.9053 15.08818345  1308,6917.946999999999,95.439,541.192,538.431,0.0
52274.0,STARLINK-3790,PAYLOAD,2022-08-03 06:00:00,15.08854963,0.0001899,53.2163,249.854,53.9872,179.0971,-0.001849,-0.00029607,0.0,0 STARLINK-3790,1 52274U 22041P   22215.25001157 -.00029607  00000-0 -18490-2 0  9992,2 52274  53.2163 249.8540 0001899  53.9872 179.0971 15.08854963 17152,6917.835,95.437,541.013,538.386,0.0
52274.0,STARLINK-3790,PAYLOAD,2022-08-03 14:00:01,15.08829352,0.0002004,53.2158,248.3584,49.2335,195.4582,0.0020203,0.00032002,0.0,0 STARLINK-3790,1 52274U 22041P   22215.58334491  .00032002  00000-0  20203-2 0  9994,2 52274  53.2158 248.3584 0002004  49.2335 195.4582 15.08829352  1303,6917.913000000001,95.438,541.164,538.3919999999998,0.0
52274.0,STARLINK-3790,PAYLOAD,2022-08-03 22:00:01,15.08822962,0.0001861,53.2159,246.8602,54.6187,201.7363,0.002101,0.00033292,0.0,0 STARLINK-3790,1 52274U 22041P   22215.91668981  .00033292  00000-0  21010-2 0  9994,2 52274  53.2159 246.8602 0001861  54.6187 201.7363 15.08822962 17252,6917.932,95.439,541.085,538.51,0.0
52274.0,STARLINK-3790,PAYLOAD,2022-08-04 14:00:01,15.08835629,0.0002046999999999,53.2157,243.8691,49.5061,229.9788,0.0013186,0.00020757,0.0,0 STARLINK-3790,1 52274U 22041P   22216.58334491  .00020757  00000-0  13186-2 0  9991,2 52274  53.2157 243.8691 0002047  49.5061 229.9788 15.08835629  1302,6917.894,95.438,541.175,538.3430000000002,0.0
52274.0,STARLINK-3790,PAYLOAD,2022-08-04 22:00:00,15.08824122,0.0001924,53.2159,242.3709,55.0154,236.0785,0.002499,0.00039691,0.0,0 STARLINK-3790,1 52274U 22041P   22216.91667824  .00039691  00000-0  24990-2 0  9999,2 52274  53.2159 242.3709 0001924  55.0154 236.0785 15.08824122  1308,6917.929,95.439,541.125,538.4630000000002,0.0
52274.0,STARLINK-3790,PAYLOAD,2022-08-05 14:00:01,15.08849868,0.0002096,53.2158,239.3798,49.1173,265.2392,0.00011222,1.499e-05,0.0,0 STARLINK-3790,1 52274U 22041P   22217.58335648  .00001499  00000-0  11222-3 0  9999,2 52274  53.2158 239.3798 0002096  49.1173 265.2392 15.08849868 17508,6917.85,95.437,541.165,538.265,0.0
52274.0,STARLINK-3790,PAYLOAD,2022-08-05 22:00:00,15.08818971,0.0001933,53.2161,237.8817,53.7872,272.1268,0.0009975,0.00015614,0.0,0 STARLINK-3790,1 52274U 22041P   22217.91667824  .00015614  00000-0  99750-3 0  9996,2 52274  53.2161 237.8817 0001933  53.7872 272.1268 15.08818971  1304,6917.945,95.439,541.1469999999998,538.472,0.0
52274.0,STARLINK-3790,PAYLOAD,2022-08-06 06:00:00,15.08840018,0.0002052,53.2162,236.3864,51.5187,285.9709,-0.0017236,-0.00027615,0.0,0 STARLINK-3790,1 52274U 22041P   22218.25001157 -.00027615  00000-0 -17236-2 0  9999,2 52274  53.2162 236.3864 0002052  51.5187 285.9709 15.08840018 17608,6917.88,95.438,541.165,538.326,0.0
52274.0,STARLINK-3790,PAYLOAD,2022-08-06 14:00:01,15.0882824,0.000212,53.2161,234.8906,47.5501,301.5193,0.00028419,4.236e-05,0.0,0 STARLINK-3790,1 52274U 22041P   22218.58334491  .00004236  00000-0  28419-3 0  9993,2 52274  53.2161 234.8906 0002120  47.5501 301.5193 15.08828240  1303,6917.916,95.438,541.248,538.315,0.0
52274.0,STARLINK-3790,PAYLOAD,2022-08-06 22:00:00,15.08806252,0.0001986,53.2163,233.3926,53.6827,306.9792,0.0029835,0.00047471,0.0,0 STARLINK-3790,1 52274U 22041P   22218.91667824  .00047471  00000-0  29835-2 0  9999,2 52274  53.2163 233.3926 0001986  53.6827 306.9792 15.08806252 17703,6917.984,95.44,541.222,538.475,0.0
52274.0,STARLINK-3790,PAYLOAD,2022-08-07 14:00:01,15.08838477,0.0002197,53.2162,230.4015,48.4899,335.3317,-0.00025408,-4.33e-05,0.0,0 STARLINK-3790,1 52274U 22041P   22219.58334491 -.00004330  00000-0 -25408-3 0  9996,2 52274  53.2162 230.4015 0002197  48.4899 335.3317 15.08838477 17810,6917.885,95.438,541.27,538.23,0.0
52274.0,STARLINK-3790,PAYLOAD,2022-08-07 22:00:00,15.08814866,0.0002043,53.2164,228.9036,54.7634,340.6611,0.0029881,0.00047556,0.0,0 STARLINK-3790,1 52274U 22041P   22219.91667824  .00047556  00000-0  29881-2 0  9995,2 52274  53.2164 228.9036 0002043  54.7634 340.6611 15.08814866  1303,6917.956999999999,95.439,541.236,538.409,0.0
52274.0,STARLINK-3790,PAYLOAD,2022-08-08 14:00:01,15.08854374,0.0002227,53.216,225.9123,49.9551,8.7188,-0.00048266,-7.965e-05,0.0,0 STARLINK-3790,1 52274U 22041P   22220.58335648 -.00007965  00000-0 -48266-3 0  9997,2 52274  53.2160 225.9123 0002227  49.9551   8.7188 15.08854374 17969,6917.8359999999975,95.437,541.242,538.161,0.0
52274.0,STARLINK-3790,PAYLOAD,2022-08-08 22:00:00,15.08835628,0.0002039,53.2161,224.4144,55.8028,14.4244,0.0020373,0.00032281,0.0,0 STARLINK-3790,1 52274U 22041P   22220.91667824  .00032281  00000-0  20373-2 0  9993,2 52274  53.2161 224.4144 0002039  55.8028  14.4244 15.08835628  1302,6917.894,95.438,541.169,538.3480000000002,0.0
52274.0,STARLINK-3790,PAYLOAD,2022-08-09 14:00:01,15.08838916,0.000214,53.2156,221.4231,49.7788,43.6393,-0.00095005,-0.00015376,0.0,0 STARLINK-3790,1 52274U 22041P   22221.58334491 -.00015376  00000-0 -95005-3 0  9991,2 52274  53.2156 221.4231 0002140  49.7788  43.6393 15.08838916  1300,6917.884,95.438,541.229,538.268,0.0
52274.0,STARLINK-3790,PAYLOAD,2022-08-09 22:00:00,15.08800717,0.0002046999999999,53.2157,219.9254,56.7317,48.26,0.0025658,0.0004074,0.0,0 STARLINK-3790,1 52274U 22041P   22221.91667824  .00040740  00000-0  25658-2 0  9994,2 52274  53.2157 219.9254 0002047  56.7317  48.2600 15.08800717 18162,6918.0,95.44,541.2819999999998,538.4490000000002,0.0
52274.0,STARLINK-3790,PAYLOAD,2022-08-10 14:00:01,15.08836556,0.0002207,53.2151,216.93400000000003,52.6558,75.4728,-0.001281,-0.00020616,0.0,0 STARLINK-3790,1 52274U 22041P   22222.58334491 -.00020616  00000-0 -12810-2 0  9997,2 52274  53.2151 216.9340 0002207  52.6558  75.4728 15.08836556  1300,6917.891,95.438,541.283,538.229,0.0
52274.0,STARLINK-3790,PAYLOAD,2022-08-10 16:00:00,15.08840473,0.0002145999999999,53.2152,216.5594,54.6448,166.3785,-0.0020458,-0.00032701,0.0,0 STARLINK-3790,1 52274U 22041P   22222.66667824 -.00032701  00000-0 -20458-2 0  9990,2 52274  53.2152 216.5594 0002146  54.6448 166.3785 15.08840473 18270,6917.879,95.438,541.229,538.259,0.0
52274.0,STARLINK-3790,PAYLOAD,2022-08-10 22:00:00,15.08811746,0.0002093,53.2152,215.4363,59.0219,80.6911,0.0021248,0.00033664,0.0,0 STARLINK-3790,1 52274U 22041P   22222.91667824  .00033664  00000-0  21248-2 0  9993,2 52274  53.2152 215.4363 0002093  59.0219  80.6911 15.08811746  1304,6917.967,95.439,541.28,538.384,0.0
52274.0,STARLINK-3790,PAYLOAD,2022-08-11 06:00:02,15.08832813,0.0002251,53.2151,213.9416,55.4001,95.9537,-0.00094706,-0.00015327,0.0,0 STARLINK-3790,1 52274U 22041P   22223.25002315 -.00015327  00000-0 -94706-3 0  9997,2 52274  53.2151 213.9416 0002251  55.4001  95.9537 15.08832813 18365,6917.901999999999,95.438,541.325,538.21,0.0
52274.0,STARLINK-3790,PAYLOAD,2022-08-11 14:00:01,15.08845241,0.0002242,53.2149,212.4448,54.5774,108.2898,-0.001643,-0.00026346,0.0,0 STARLINK-3790,1 52274U 22041P   22223.58334491 -.00026346  00000-0 -16430-2 0  9996,2 52274  53.2149 212.4448 0002242  54.5774 108.2898 15.08845241  1301,6917.864000000001,95.437,541.28,538.178,0.0
52274.0,STARLINK-3790,PAYLOAD,2022-08-11 22:00:00,15.08823668,0.0002168,53.2151,210.9471,60.5778,113.883,0.0019375,0.00030669,0.0,0 STARLINK-3790,1 52274U 22041P   22223.91667824  .00030669  00000-0  19375-2 0  9994,2 52274  53.2151 210.9471 0002168  60.5778 113.8830 15.08823668 18463,6917.93,95.439,541.295,538.2959999999998,0.0
52274.0,STARLINK-3790,PAYLOAD,2022-08-12 14:00:01,15.08860052,0.0002293,53.2152,207.9554,55.9266,141.7143,-0.0017664,-0.00028307,0.0,0 STARLINK-3790,1 52274U 22041P   22224.58334491 -.00028307  00000-0 -17664-2 0  9996,2 52274  53.2152 207.9554 0002293  55.9266 141.7143 15.08860052 18567,6917.819,95.436,541.27,538.0980000000002,0.0
52274.0,STARLINK-3790,PAYLOAD,2022-08-12 22:00:01,15.08838485,0.0002254,53.2155,206.4578,61.4843,147.826,0.0018202,0.00028799,0.0,0 STARLINK-3790,1 52274U 22041P   22224.91668981  .00028799  00000-0  18202-2 0  9999,2 52274  53.2155 206.4578 0002254  61.4843 147.8260 15.08838485  1306,6917.885,95.438,541.309,538.191,0.0
